OBJECT_NAME,OBJECT_ID,EPOCH,MEAN_MOTION,ECCENTRICITY,INCLINATION,RA_OF_ASC_NODE,ARG_OF_PERICENTER,MEAN_ANOMALY,EPHEMERIS_TYPE,CLASSIFICATION_TYPE,NORAD_CAT_ID,ELEMENT_SET_NO,REV_AT_EPOCH,BSTAR,MEAN_MOTION_DOT,MEAN_MOTION_DDOT
STARLINK-6109,2023-046B,2026-05-12T02:44:32.045856,15.27577193,.00009126,43.0018,163.1832,268.7966,91.2781,0,U,56094,999,17173,.15729683E-4,.171E-5,0
STARLINK-6090,2023-046C,2026-05-12T02:33:26.714016,15.27546028,.000292,43.0028,163.1273,262.2934,97.7586,0,U,56095,999,17173,.27713932E-3,.7364E-4,0
STARLINK-6089,2023-046D,2026-05-11T18:59:17.500992,15.27578952,.00010817,43.0008,165.0590,273.3405,86.7323,0,U,56096,999,17168,.18479952E-4,.247E-5,0
STARLINK-6077,2023-046E,2026-05-12T05:35:29.459904,15.27598743,.00005468,43.0019,115.4199,288.4834,71.5958,0,U,56097,999,17229,.19081838E-3,.4996E-4,0
STARLINK-6088,2023-046F,2026-05-12T00:00:02.000160,15.27568727,.00014468,43.0008,163.7800,264.3202,208.0224,0,U,56098,999,566,.11690807E-2,.32037E-3,0
STARLINK-6076,2023-046H,2026-05-12T02:13:55.170624,15.25904762,.00020897,43.0034,163.0435,290.3302,69.7324,0,U,56100,999,17173,.17921906E-4,.211E-5,0
STARLINK-6095,2023-046J,2026-05-12T02:31:34.423392,15.27583343,.00011913,43.0023,163.1109,282.2406,77.8312,0,U,56101,999,17173,.21764542E-4,.337E-5,0
STARLINK-6075,2023-046K,2026-05-11T11:12:12.782304,15.27584183,.00013217,42.9998,166.9193,273.6932,86.3768,0,U,56102,999,17163,.64993398E-4,.1527E-4,0
STARLINK-6096,2023-046L,2026-05-12T02:42:39.893472,15.27582293,.00011169,43.0027,163.1720,258.5932,101.4795,0,U,56103,999,17173,.61356923E-4,.1427E-4,0
STARLINK-6062,2023-046M,2026-05-12T02:37:07.606848,15.27574266,.00008922,43.0027,163.1388,254.1208,105.9545,0,U,56104,999,17173,.25482196E-4,.439E-5,0
STARLINK-6066,2023-046N,2026-05-12T06:00:02.999808,15.27544045,.00012586,43.0015,162.8225,290.2907,287.5904,0,U,56105,999,570,-.21404027E-3,-.6141E-4,0
STARLINK-6030,2023-046Q,2026-05-12T02:05:52.266336,15.27576559,.0001696,43.0036,163.8259,271.7291,88.3366,0,U,56107,999,17172,.4598114E-4,.1003E-4,0
STARLINK-6081,2023-046R,2026-05-12T02:57:28.450944,15.27580746,.00010849,42.9996,163.2433,281.0093,79.0637,0,U,56108,999,17173,-.7751556E-5,-.475E-5,0
STARLINK-6083,2023-046S,2026-05-12T02:00:20.399616,15.27567211,.00019071,43.0014,163.7974,278.5367,81.5269,0,U,56109,999,17172,.581025E-5,-.102E-5,0
STARLINK-6082,2023-046T,2026-05-11T11:43:40.146240,15.27572127,.0001471,43.0019,167.0797,278.2762,81.7922,0,U,56110,999,17163,.59752044E-4,.1382E-4,0
STARLINK-6084,2023-046U,2026-05-11T09:06:48.943296,15.27571727,.00013849,43.0019,167.9672,262.4611,97.6083,0,U,56111,999,17161,-.8697563E-5,-.501E-5,0
STARLINK-6080,2023-046V,2026-05-12T01:58:59.546496,15.26750580,.00019872,43.0042,163.7971,277.3937,82.6688,0,U,56112,999,17172,.52128176E-4,.1139E-4,0
STARLINK-6113,2023-046W,2026-05-11T18:37:05.489472,15.27583729,.0001283,43.0039,164.9311,285.6779,74.3931,0,U,56113,999,17168,.4548567E-5,-.137E-5,0
STARLINK-6101,2023-046Y,2026-05-12T01:53:37.633056,15.27576734,.00025697,42.9997,160.3471,262.0031,98.0529,0,U,56115,999,17176,.11456029E-4,.53E-6,0
STARLINK-6114,2023-046Z,2026-05-12T06:00:02.999808,15.27592503,.00013787,43.0011,163.0267,270.5666,222.3857,0,U,56116,999,580,-.75520199E-3,-.20993E-3,0
STARLINK-6107,2023-046AA,2026-05-12T01:57:23.602752,15.27556321,.00008924,43.0035,149.1173,284.1981,75.8772,0,U,56117,999,17189,-.96926943E-4,-.2926E-4,0
STARLINK-6091,2023-046AC,2026-05-12T02:17:42.748224,15.27575981,.00015162,43.0041,149.2202,276.5012,83.5667,0,U,56119,999,17189,.6394272E-5,-.86E-6,0
STARLINK-6079,2023-046AD,2026-05-12T02:12:09.615744,15.27573752,.00012294,43.0023,149.1876,283.8775,76.1940,0,U,56120,999,17189,.16427112E-4,.19E-5,0
STARLINK-6092,2023-046AE,2026-05-12T02:06:36.485856,15.27577223,.00013064,43.0014,149.1614,290.2800,69.7911,0,U,56121,999,17189,.10870206E-4,.37E-6,0
STARLINK-6094,2023-046AF,2026-05-12T01:59:10.883040,15.27577548,.00020991,43.0013,160.3819,279.8863,80.1751,0,U,56122,999,17176,.8415232E-4,.2054E-4,0
STARLINK-6115,2023-046AH,2026-05-12T02:38:05.246880,15.27581536,.00019773,43.0038,149.3150,267.5312,92.5313,0,U,56123,999,17189,.56636822E-4,.1296E-4,0
STARLINK-6126,2023-046AJ,2026-05-12T02:01:01.751520,15.27590376,.00010233,43.0002,149.1322,267.8950,92.1785,0,U,56124,999,17189,.41188976E-4,.872E-5,0
STARLINK-6119,2023-046AK,2026-05-12T00:58:21.559584,15.27575279,.00017582,43.0038,149.6589,281.8093,78.2561,0,U,56125,999,17188,.9362234E-5,-.5E-7,0
STARLINK-6124,2023-046AL,2026-05-12T01:42:33.490944,15.27572872,.0001158,43.0029,149.0323,271.0928,88.9791,0,U,56126,999,17189,.2864217E-4,.526E-5,0
STARLINK-6104,2023-046AM,2026-05-12T02:50:37.199904,15.25921682,.00017896,43.0069,151.9442,296.0705,63.9961,0,U,56127,999,17186,.11017209E-3,.2626E-4,0
