STARLINK-6109           
1 56094U 23046B   26132.11425979  .00000171  00000+0  15730-4 0  9999
2 56094  43.0018 163.1832 0000912 268.7966  91.2781 15.27577193171736
STARLINK-6090           
1 56095U 23046C   26132.10655919  .00007364  00000+0  27714-3 0  9993
2 56095  43.0028 163.1273 0002920 262.2934  97.7586 15.27546028171739
STARLINK-6089           
1 56096U 23046D   26131.79117478  .00000247  00000+0  18480-4 0  9995
2 56096  43.0008 165.0590 0001081 273.3405  86.7323 15.27578952171686
STARLINK-6077           
1 56097U 23046E   26132.23297986  .00004996  00000+0  19082-3 0  9992
2 56097  43.0019 115.4199 0000546 288.4834  71.5958 15.27598743172295
STARLINK-6088           
1 56098U 23046F   26132.00002315  .00032037  00000+0  11691-2 0  9992
2 56098  43.0008 163.7800 0001446 264.3202 208.0224 15.27568727  5669
STARLINK-6076           
1 56100U 23046H   26132.09299966  .00000211  00000+0  17922-4 0  9999
2 56100  43.0034 163.0435 0002089 290.3302  69.7324 15.25904762171739
STARLINK-6095           
1 56101U 23046J   26132.10525953  .00000337  00000+0  21765-4 0  9999
2 56101  43.0023 163.1109 0001191 282.2406  77.8312 15.27583343171732
STARLINK-6075           
1 56102U 23046K   26131.46681461  .00001527  00000+0  64993-4 0  9997
2 56102  42.9998 166.9193 0001321 273.6932  86.3768 15.27584183171631
STARLINK-6096           
1 56103U 23046L   26132.11296173  .00001427  00000+0  61357-4 0  9993
2 56103  43.0027 163.1720 0001116 258.5932 101.4795 15.27582293171736
STARLINK-6062           
1 56104U 23046M   26132.10911582  .00000439  00000+0  25482-4 0  9992
2 56104  43.0027 163.1388 0000892 254.1208 105.9545 15.27574266171738
STARLINK-6066           
1 56105U 23046N   26132.25003472 -.00006141  00000+0 -21404-3 0  9996
2 56105  43.0015 162.8225 0001258 290.2907 287.5904 15.27544045  5707
STARLINK-6030           
1 56107U 23046Q   26132.08741049  .00001003  00000+0  45981-4 0  9995
2 56107  43.0036 163.8259 0001696 271.7291  88.3366 15.27576559171726
STARLINK-6081           
1 56108U 23046R   26132.12324596 -.00000475  00000+0 -77516-5 0  9999
2 56108  42.9996 163.2433 0001084 281.0093  79.0637 15.27580746171735
STARLINK-6083           
1 56109U 23046S   26132.08356944 -.00000102  00000+0  58103-5 0  9994
2 56109  43.0014 163.7974 0001907 278.5367  81.5269 15.27567211171723
STARLINK-6082           
1 56110U 23046T   26131.48865910  .00001382  00000+0  59752-4 0  9997
2 56110  43.0019 167.0797 0001471 278.2762  81.7922 15.27572127171632
STARLINK-6084           
1 56111U 23046U   26131.37973314 -.00000501  00000+0 -86976-5 0  9997
2 56111  43.0019 167.9672 0001384 262.4611  97.6083 15.27571727171612
STARLINK-6080           
1 56112U 23046V   26132.08263364  .00001139  00000+0  52128-4 0  9991
2 56112  43.0042 163.7971 0001987 277.3937  82.6688 15.26750580171722
STARLINK-6113           
1 56113U 23046W   26131.77575798 -.00000137  00000+0  45486-5 0  9992
2 56113  43.0039 164.9311 0001283 285.6779  74.3931 15.27583729171689
STARLINK-6101           
1 56115U 23046Y   26132.07890779  .00000053  00000+0  11456-4 0  9992
2 56115  42.9997 160.3471 0002569 262.0031  98.0529 15.27576734171760
STARLINK-6114           
1 56116U 23046Z   26132.25003472 -.00020993  00000+0 -75520-3 0  9997
2 56116  43.0011 163.0267 0001378 270.5666 222.3857 15.27592503  5807
STARLINK-6107           
1 56117U 23046AA  26132.08152318 -.00002926  00000+0 -96927-4 0  9994
2 56117  43.0035 149.1173 0000892 284.1981  75.8772 15.27556321171894
STARLINK-6091           
1 56119U 23046AC  26132.09563366 -.00000086  00000+0  63943-5 0  9993
2 56119  43.0041 149.2202 0001516 276.5012  83.5667 15.27575981171893
STARLINK-6079           
1 56120U 23046AD  26132.09177796  .00000190  00000+0  16427-4 0  9992
2 56120  43.0023 149.1876 0001229 283.8775  76.1940 15.27573752171895
STARLINK-6092           
1 56121U 23046AE  26132.08792229  .00000037  00000+0  10870-4 0  9992
2 56121  43.0014 149.1614 0001306 290.2800  69.7911 15.27577223171896
STARLINK-6094           
1 56122U 23046AF  26132.08276485  .00002054  00000+0  84152-4 0  9999
2 56122  43.0013 160.3819 0002099 279.8863  80.1751 15.27577548171765
STARLINK-6115           
1 56123U 23046AH  26132.10978295  .00001296  00000+0  56637-4 0  9995
2 56123  43.0038 149.3150 0001977 267.5312  92.5313 15.27581536171892
STARLINK-6126           
1 56124U 23046AJ  26132.08404805  .00000872  00000+0  41189-4 0  9999
2 56124  43.0002 149.1322 0001023 267.8950  92.1785 15.27590376171897
STARLINK-6119           
1 56125U 23046AK  26132.04052731 -.00000005  00000+0  93622-5 0  9992
2 56125  43.0038 149.6589 0001758 281.8093  78.2561 15.27575279171887
STARLINK-6124           
1 56126U 23046AL  26132.07122096  .00000526  00000+0  28642-4 0  9994
2 56126  43.0029 149.0323 0001158 271.0928  88.9791 15.27572872171890
STARLINK-6104           
1 56127U 23046AM  26132.11848611  .00002626  00000+0  11017-3 0  9998
2 56127  43.0069 151.9442 0001789 296.0705  63.9961 15.25921682171863
